TRANSPORTER-14 OBJECT E 
1 64532U 25135E   26068.86180914  .00015840  00000+0  65811-3 0  9996
2 64532  97.4603 185.3351 0005396 147.6959 212.4610 15.23884665 39782
TRANSPORTER-14 OBJECT V 
1 64547U 25135V   26068.73017793  .00011680  00000+0  49387-3 0  9990
2 64547  97.4496 185.0128 0001144 144.8208 215.3104 15.23374465 39771
