[{"OBJECT_NAME":"TRANSPORTER-14 OBJECT E","OBJECT_ID":"2025-135E","EPOCH":"2026-03-09T20:41:00.309696","MEAN_MOTION":15.23884665,"ECCENTRICITY":0.00053958,"INCLINATION":97.4603,"RA_OF_ASC_NODE":185.3351,"ARG_OF_PERICENTER":147.6959,"MEAN_ANOMALY":212.461,"EPHEMERIS_TYPE":0,"CLASSIFICATION_TYPE":"U","NORAD_CAT_ID":64532,"ELEMENT_SET_NO":999,"REV_AT_EPOCH":3978,"BSTAR":0.0006581062,"MEAN_MOTION_DOT":0.0001584,"MEAN_MOTION_DDOT":0},{"OBJECT_NAME":"TRANSPORTER-14 OBJECT V","OBJECT_ID":"2025-135V","EPOCH":"2026-03-09T17:31:27.373152","MEAN_MOTION":15.23374465,"ECCENTRICITY":0.00011439,"INCLINATION":97.4496,"RA_OF_ASC_NODE":185.0128,"ARG_OF_PERICENTER":144.8208,"MEAN_ANOMALY":215.3104,"EPHEMERIS_TYPE":0,"CLASSIFICATION_TYPE":"U","NORAD_CAT_ID":64547,"ELEMENT_SET_NO":999,"REV_AT_EPOCH":3977,"BSTAR":0.00049387386,"MEAN_MOTION_DOT":0.0001168,"MEAN_MOTION_DDOT":0}]
